#dP2022  1 27  0  0  0.00000000      96 __u+U ITR00 FIT  IAC
## 2194 345600.00000000   900.00000000 59606 0.0000000000000
+  125   C01C02C03C04C05C06C07C08C09C10C11C12C13C14C16C19C20
+        C21C22C23C24C25C26C27C28C29C30C32C33C34C35C36C37C38
+        C39C41C42C43C44C45C46C59C60E01E02E03E04E05E07E08E09
+        E11E12E13E14E15E18E19E21E24E25E26E27E30E31E33E36G01
+        G02G03G04G05G06G07G08G09G10G11G12G13G14G15G16G17G18
+        G19G20G21G22G23G24G25G26G27G28G29G30G31G32J01J02J03
+        R01R02R03R04R05R06R07R08R09R10R11R12R13R14R15R17R18
+        R19R20R21R22R23R24  0  0  0  0  0  0  0  0  0  0  0
++        15 14 14 15 14  8  9  9  8  8  8  8  8  9  9  7  7
++         6  7  7  7  7  7  7  7  7  7  7  7  7  7  7  7  8
++         8  7  7  7  7  7  7 16 14  4  4  4  4  4  5  4  4
++         4  4  4  4  4  4  4  4  4  4  4  4  4  4  4  4  3
++         4  3  4  4  3  4  3  4  3  4  3  4  3  4  4  3  4
++         3  4  3  4  3  3  4  4  4  4  4  3  3  3  9  8  8
++         7  5  5  5  6 13  6  6  6 13  7  9  7  6  6  6  6
++         7  7  6  7 13  6  0  0  0  0  0  0  0  0  0  0  0
%c M  cc GPS ccc cccc cccc cccc cccc ccccc ccccc ccccc ccccc
%c cc cc ccc ccc cccc cccc cccc cccc ccccc ccccc ccccc ccccc
%f  0.0000000  0.000000000  0.00000000000  0.000000000000000
%f  0.0000000  0.000000000  0.00000000000  0.000000000000000
%i    0    0    0    0      0      0      0      0         0
%i    0    0    0    0      0      0      0      0         0
/* INFORMATION & ANALYSIS CENTER (IAC)            RAPID DATA
/* S/V CLOCKS ARE ALIGNED TO GNSS TIME                      
/* G:C1WC2W R:C1PC2P E:C1XC5X C:C2IC6I J:C1CC2S             
/* PCV:IGS14_2194 OL/AL:FES2004  NONE     YN ORB:CoN CLK:CoN
*  2022 01 27  8  0  0.00000000
PC01 -34358.431289  24479.992463   -238.719083   -193.403863
PC02   4463.169250  41870.243300  -1112.973811    672.206107
PC03 -14710.225393  39485.367101  -1164.912054    671.515057
PC04 -39641.287085  14424.351313    -68.835625   -328.303149
PC05  21854.763372  36012.653048  -1217.042975   -502.526892
PC06 -13706.736729  39698.182553   1981.668212    -53.068025
PC07  -2362.411015  30925.096443  28611.993225     21.402677
PC08 -15915.910458  21976.326356 -32299.740842     90.236337
PC09  -8319.064082  39567.663682  11380.598312   -470.168963
PC10   4706.384323  33771.539339  25327.882043    139.763871
PC11  13101.417390   8200.645112 -23166.156900   -245.376534
PC12   1523.521697  23485.647485 -14961.555929   -435.218830
PC13  -8363.502417  23569.521990 -33873.283385   -134.641212
PC14  21324.956034  15593.998385   9090.179064    462.898134
PC16 -14841.404280  39328.933915   -256.978631     66.962827
PC19 -21077.235520  -7077.444702 -16832.081499    904.878201
PC20 -18727.199365 -20612.375165  -1563.175844   -811.574352
PC21   4964.465780  22616.456056 -15570.375696   -969.721122
PC22 -11309.633665  11115.468779 -22962.062227   -958.457842
PC23  22292.089682 -12175.855927 -11547.895649   -972.530889
PC24  15671.056557  11797.692771  19820.698502   -944.262425
PC25  27369.328109  -1582.982777   5130.930410   -788.378842
PC26  -3044.495516  16732.926204  22116.618982    787.714257
PC27   4959.626857 -26550.065793   7040.353972    667.850175
PC28  15579.776673 -20718.102040 -10328.148475     25.650516
PC29 -17058.357328   3109.653315  21859.931569    506.958214
PC30  -8844.920236 -17247.274174  20082.204336    492.059636
PC32  -5043.781957 -22561.312407  15642.120574   -960.470307
PC33  21169.659212   7019.213344  16784.541823   -955.102825
PC34   9470.137069  16389.740026 -20502.595436   -482.620980
PC35 -15133.861164  20720.803851  10921.608001    111.881170
PC36 -27340.071818    625.399990  -5570.209280   -880.989437
PC37   4613.489500 -16686.718372 -21872.598744   -954.304479
PC38 -21791.674423  23397.071977 -27556.521379    207.095609
PC39 -15709.614693  38567.086225  -5931.783979     34.712154
PC41  11657.599274 -10810.457348  22984.112108   -928.269156
PC42  18362.233087  21012.185538    703.260213   -929.366371
PC43  17064.975814  -2308.248876 -21968.570523   -945.476665
PC44  -4103.587137  26721.044415  -6852.009810    545.056196
PC45 -22168.728527  12232.273469  11761.584312    664.613555
PC46 -17010.671357 -10980.753762 -19227.377465   -136.394363
PC59 -32328.784493  27082.562058   -165.052007     -0.542673
PC60   7312.360878  41522.965671   -530.794089     -0.268662
PE01 -21162.001971   6672.865619  19596.929993   -567.420920
PE02  21009.564968  -6801.997508 -19702.121791    276.291225
PE03  12840.047745 -15129.440596  21955.407482   -521.394089
PE04   -694.373230  28303.912292  -8627.647828   -951.596881
PE05  17670.459133   7182.428465  22632.336041   -214.768526
PE07 -12149.498740 -25017.350763 -10125.715736   -632.737787
PE08    241.041666 -28412.503857   8281.466123   5865.349561
PE09  12296.465394  24857.440373  10360.825331   5381.047213
PE11   8473.892906  13960.942389 -24687.335209   4589.289106
PE12 -10963.166030  22868.105645 -15244.110104   4789.629166
PE13  -7839.429216 -14372.153405  24671.495384    426.014131
PE14 -13370.712589  14622.389994  16027.678870  -1724.538430
PE15  11053.537435 -22893.781365  15179.274619    766.892885
PE18  19615.904690  -5503.722009 -23522.947982  -1863.938171
PE19 -13858.240206  12569.096890 -22934.563304    487.741285
PE21 -28498.495514  -6644.037623   4502.613287   -713.636611
PE24  18735.251531  17362.617424  14913.791241  -1357.584957
PE25  28480.601250   6807.476726  -4266.253093   -561.628414
PE26 -22551.152839   3292.238792  18899.125016   -735.355695
PE27 -19862.716892 -16929.797484 -13984.644267   -218.726437
PE30   1718.945057 -16914.697907 -24244.312598   -225.162613
PE31   -416.447132  17172.520997  24108.688828   -491.328166
PE33 -23367.319935  17870.996113   3250.216525   -460.001184
PE36  22025.848842  -2558.696111 -19603.065041   -323.818797
PG01  -7506.574897  18515.582915 -17597.943575    446.782262
PG02  21399.614262 -15781.978185   -664.252052   -649.611674
PG03   2941.791723  17031.027100 -20299.660136    -95.022873
PG04   -806.278572  26439.175421  -1848.819229   -192.924260
PG05  13681.806672  -9546.740961  20538.634164    -69.322871
PG06  21917.152940  -2474.047020 -14778.687477    182.995572
PG07   9352.061349  12543.979279  21853.000139    305.452203
PG08  -6981.442509  22236.776169  12387.263452    -53.776837
PG09   7968.436658  23700.172485   8837.220841   -356.529547
PG10 -24016.794462 -11693.319346   -615.672957   -304.175229
PG11  23612.952464 -12002.295154  -1873.171707    -84.247582
PG12    952.853565 -16358.566561 -21192.251175   -161.947337
PG13  12840.254104 -15881.602087  16739.573065    251.901714
PG14  23318.020154  12785.488955   -384.223231    -76.242009
PG15   4340.898114 -23313.243632  11225.927828    -88.435767
PG16 -17479.950390   4644.007482  19345.113865   -461.367130
PG17  12746.950074  12555.550963 -19179.601247    566.971426
PG18  -9009.216684 -12050.397835  21887.795360    252.716564
PG19  14662.635129   3836.574182 -22085.566641    110.964535
PG20  21489.453168  -4289.660070  14826.058367    516.983303
PG21 -15403.439107  19224.590372  -8383.159455    156.940915
PG22 -15024.582506    147.976637 -21504.326646    204.619626
PG23 -18389.713848 -16399.683789  10025.703887      7.112455
PG24  10081.025727 -20398.765430 -13647.129630    276.686233
PG25 -12139.988396 -18270.562815 -15453.306122    276.862779
PG26 -24574.871947  -2987.925460   9952.711530    178.005691
PG27 -12462.759355  12815.294183  19316.290535     90.616299
PG28  23574.534664   8565.414427  -7854.420298    413.444709
PG29  -3775.934077 -25436.707435   6489.090922   -472.566554
PG30  17560.567560   5760.471125  19225.679508   -509.504269
PG31 -23348.419373   3868.761158 -12638.643682   -161.882585
PG32 -14899.698748  -7755.642631 -20494.239259    -57.264190
PJ01 -21166.722172  21444.006002 -24939.424007    276.573517
PJ02 -29303.318944  21058.884772  26747.395793     -0.993690
PJ03 -31312.422939  27126.855996  13215.358401     -0.295787
PR01    216.027829 -17310.541766  18730.532525      7.103058
PR02 -11760.197083 -22636.511836   1372.915466    507.803524
PR03 -15674.443615 -13290.917033 -15108.624973     50.585669
PR04 -10517.552922   3203.071092 -22991.522071    125.266100
PR05    254.425756  17943.928392 -18105.536699     86.676967
PR06  12898.497153  21988.897070   -303.603790    -29.316324
PR07  15611.468554  12583.311925  15771.923047     31.066815
PR08  10566.809832  -3446.683900  23011.881523    -63.289227
PR09  11255.863331  10092.520507  20578.160207     36.260125
PR10  23468.829776   4203.679146   8943.787407    -79.253973
PR11  23435.122604  -4397.703881  -9067.287526     46.589730
PR12   8602.377190 -10303.002214 -21666.024116     17.038775
PR13 -10037.600264 -10106.257300 -21183.098031    -17.549013
PR14 -24038.643057  -3780.618827  -7629.370752     73.683070
PR15 -23145.060734   4484.538419   9760.265339     98.618262
PR17 -11117.923349  -1693.733193  22912.173338    496.251772
PR18 -15939.958151  13816.888226  14320.646872    105.221249
PR19 -13513.924353  21618.802692   -825.478266   -175.931345
PR20  -1288.063569  17253.349391 -18710.789554    -63.793631
PR21  11706.382772    350.948739 -22651.551536   -273.281620
PR22  16075.250282 -14558.218515 -13517.906513   -160.756850
PR23  10123.516378 -22355.457744   6966.807928    -28.201290
PR24     79.692690 -17059.806562  18981.788847     77.486273
EOF
